1 50803U 22001A   22079.91668981 -.00722514  00000-0 -15548-1 0  9996
2 50803  53.2171 200.5444 0001587  28.1518  68.4484 15.46382417  3684
1 50803U 22001A   22080.58334491 -.00718459  00000-0 -16009-1 0  9993
2 50803  53.2173 197.3801 0001833  40.1969 168.5093 15.45359483  3677
1 50803U 22001A   22080.83334491 -.00718566  00000-0 -16224-1 0  9999
2 50803  53.2172 196.1950 0001634  44.6605 115.4765 15.44977593 12903
1 50803U 22001A   22080.91667824 -.00723247  00000-0 -16409-1 0  9994
2 50803  53.2172 195.7993 0001495  50.5452 213.3255 15.44852427  3670
1 50803U 22001A   22081.58334491 -.00722782  00000-0 -16978-1 0  9993
2 50803  53.2174 192.6425 0001895  29.9921 342.3709 15.43832334  3696
1 50803U 22001A   22081.83334491 -.00720825  00000-0 -17152-1 0  9992
2 50803  53.2173 191.4597 0001466  43.6782 278.7373 15.43449519 13064
1 50803U 22001A   22081.91668981 -.00719902  00000-0 -17203-1 0  9996
2 50803  53.2173 191.0653 0001525  40.2154  25.5397 15.43320934  3685
1 50803U 22001A   22082.58334491 -.00719174  00000-0 -17785-1 0  9992
2 50803  53.2174 187.9158 0002189  29.5689 140.9376 15.42300443  3681
1 50803U 22001A   22082.83334491 -.00718446  00000-0 -17998-1 0  9997
2 50803  53.2172 186.7356 0001672  39.0511  80.1293 15.41917954 13215
1 50803U 22001A   22082.91667824 -.00721590  00000-0 -18160-1 0  9991
2 50803  53.2173 186.3419 0001640  45.9964 175.9988 15.41791884  3670
1 50803U 22001A   22083.58334491 -.00721251  00000-0 -18780-1 0  9998
2 50803  53.2176 183.2000 0001935  31.7187 291.4151 15.40771802  3653
1 50803U 22001A   22083.91667824 -.00720793  00000-0 -19090-1 0  9999
2 50803  53.2174 181.6296 0001632  36.4289 336.3559 15.40261631  3687
1 50803U 22001A   22083.91667824 -.00720793  00000-0 -19090-1 0  9999
2 50803  53.2174 181.6296 0001632  36.4289 336.3559 15.40261631 13385
1 50803U 22001A   22084.58334491 -.00720931  00000-0 -19747-1 0  9997
2 50803  53.2175 178.4952 0002286  25.5162  84.7301 15.39241911  3660
1 50803U 22001A   22084.91668981 -.00719588  00000-0 -20045-1 0  9997
2 50803  53.2173 176.9281 0001589  47.2037 110.9197 15.38731243  3670
1 50803U 22001A   22085.25001157 -.00717697  00000-0 -20325-1 0  9991
2 50803  53.2175 175.3627 0001811  41.8284 163.4301 15.38220874 13585
1 50803U 22001A   22085.58334491 -.00718213  00000-0 -20683-1 0  9999
2 50803  53.2174 173.8011 0001902  38.6156 213.2287 15.37710597  3645
1 50803U 22001A   22085.91667824 -.00722088  00000-0 -21153-1 0  9993
2 50803  53.2173 172.2377 0001532  47.3825 250.4355 15.37202694  3666
1 50803U 22001A   22086.25001157 -.00716534  00000-0 -21329-1 0  9996
2 50803  53.2176 170.6760 0001688  35.7314 307.4484 15.36690167 13744
1 50803U 22001A   22086.58334491 -.00721129  00000-0 -21833-1 0  9998
2 50803  53.2174 169.1181 0001753  35.0052 352.9210 15.36182320  3666
1 50803U 22001A   22086.91668981 -.00718851  00000-0 -22122-1 0  9999
2 50803  53.2174 167.5582 0001472  44.9820  27.1446 15.35671150  3679
1 50803U 22001A   22087.25001157 -.00716638  00000-0 -22413-1 0  9997
2 50803  53.2175 166.0001 0001697  40.9396  74.6462 15.35160150 13896
1 50803U 22001A   22087.58335648 -.00716883  00000-0 -22791-1 0  9999
2 50803  53.2174 164.4458 0001750  44.1386 114.4197 15.34650089  3664
1 50803U 22001A   22087.91667824 -.00719988  00000-0 -23273-1 0  9995
2 50803  53.2174 162.8894 0001716  44.1214 156.6699 15.34142109  3655
1 50803U 22001A   22088.16667824 -.00718106  00000-0 -23492-1 0  9997
2 50803  53.2174 161.7233 0001877  36.6147 105.4978 15.33758581 14031
1 50803U 22001A   22088.58334491 -.00583552  00000-0 -19477-1 0  9997
2 50803  53.2174 159.7829 0001883  45.5183 238.0952 15.33014417  3626
1 50803U 22001A   22088.91667824 -.00621609  00000-0 -20910-1 0  9993
2 50803  53.2176 158.2301 0001685  33.7077 290.3411 15.32535794  3624
1 50803U 22001A   22089.08334491 -.00720120  00000-0 -24634-1 0  9998
2 50803  53.2174 157.4554 0001859  36.1110 127.8941 15.32357295 14173
1 50803U 22001A   22089.58335648 -.00631526  00000-0 -21953-1 0  9990
2 50803  53.2177 155.1326 0001661  39.0133   4.1661 15.31528230  3639
1 50803U 22001A   22089.91667824 -.00716923  00000-0 -25521-1 0  9991
2 50803  53.2176 153.5847 0001679  37.8870  43.8179 15.31080401  3683
1 50803U 22001A   22090.16667824 -.00714428  00000-0 -25731-1 0  9991
2 50803  53.2176 152.4242 0001821  33.2198 347.0485 15.30696852 14348
1 50803U 22001A   22090.58334491 -.00711679  00000-0 -26138-1 0  9995
2 50803  53.2176 150.4944 0002177  30.2487 126.8583 15.30057310  3652
1 50803U 22001A   22090.91667824 -.00596418  00000-0 -22028-1 0  9997
2 50803  53.2177 148.9470 0001897  29.6871 164.2588 15.29454293  3623
1 50803U 22001A   22091.25001157 -.00715655  00000-0 -27140-1 0  9992
2 50803  53.2177 147.4058 0001990  36.3539 193.7035 15.29040148 14502
1 50803U 22001A   22091.58334491 -.00711666  00000-0 -27407-1 0  9992
2 50803  53.2176 145.8654 0001883  38.2554 227.3582 15.28527862  3684
1 50803U 22001A   22091.91667824 -.00724879  00000-0 -28047-1 0  9999
2 50803  53.2177 144.3231 0001653  41.5557 259.0014 15.28020745  3641
1 50803U 22001A   22092.16667824 -.00724231  00000-0 -28350-1 0  9996
2 50803  53.2176 143.1684 0001781  44.2053 192.1570 15.27638400 14640
1 50803U 22001A   22092.91668981 -.00590870  00000-0 -23955-1 0  9990
2 50803  53.2175 139.7071 0001819  27.9956  13.8304 15.26395902  3628
1 50803U 22001A   22093.16667824 -.00724470  00000-0 -29714-1 0  9997
2 50803  53.2178 138.5566 0001800  35.7904 300.3467 15.26108557 14801
1 50803U 22001A   22093.91667824 -.00721858  00000-0 -30646-1 0  9993
2 50803  53.2175 135.1049 0001859  36.1264 101.2233 15.24959146  3651
1 50803U 22001A   22094.16667824 -.00724656  00000-0 -31127-1 0  9995
2 50803  53.2176 133.9557 0002016  31.0827  39.3141 15.24578500 14952
1 50803U 22001A   22094.58334491 -.00718614  00000-0 -31450-1 0  9998
2 50803  53.2173 132.0434 0001739  45.5996 152.4447 15.23937474  3672
1 50803U 22001A   22094.91667824 -.00720892  00000-0 -32040-1 0  9991
2 50803  53.2174 130.5117 0001809  41.2584 186.2148 15.23428943  3666
1 50803U 22001A   22095.25001157 -.00722505  00000-0 -32608-1 0  9993
2 50803  53.2176 128.9842 0001840  41.5558 214.7321 15.22919771 15119
1 50803U 22001A   22095.58335648 -.00721556  00000-0 -33061-1 0  9993
2 50803  53.2173 127.4575 0001635  46.1319 238.4215 15.22409601  3670
1 50803U 22001A   22095.91667824 -.00719959  00000-0 -33486-1 0  9999
2 50803  53.2174 125.9296 0001680  40.6906 271.3911 15.21898371  3668
1 50803U 22001A   22096.25002315 -.00608884  00000-0 -28805-1 0  9998
2 50803  53.2171 124.4034 0001528  47.8043 291.3579 15.21312142 15270
1 50803U 22001A   22096.58334491 -.00722810  00000-0 -34654-1 0  9992
2 50803  53.2173 122.8825 0001585  41.8517 323.5694 15.20880567 15327
1 50803U 22001A   22096.91667824 -.00720192  00000-0 -35043-1 0  9992
2 50803  53.2174 121.3581 0001568  41.1327 350.0423 15.20368416  3667
1 50803U 22001A   22097.58334491 -.00721391  00000-0 -36167-1 0  9997
2 50803  53.2172 118.3182 0001612  43.1621  37.6758 15.19349779  3654
1 50803U 22001A   22097.83334491 -.00722770  00000-0 -36647-1 0  9990
2 50803  53.2175 117.1773 0001606  40.8012 328.0302 15.18967523 15513
1 50803U 22001A   22097.91667824 -.00722523  00000-0 -36769-1 0  9999
2 50803  53.2174 116.7974 0001759  39.2946  65.4579 15.18839814  3669
1 50803U 22001A   22098.58336806 -.00721746  00000-0 -37830-1 0  9992
2 50803  53.2172 113.7644 0001607  50.0314 100.8346 15.17819868  3651
1 50803U 22001A   22098.83334491 -.00721691  00000-0 -38247-1 0  9990
2 50803  53.2175 112.6264 0001705  38.8617  38.4925 15.17436946 15664
1 50803U 22001A   22098.91667824 -.00724240  00000-0 -38531-1 0  9997
2 50803  53.2172 112.2474 0001808  42.7612 130.0539 15.17310887  3621
1 50803U 22001A   22099.58334491 -.00723959  00000-0 -39662-1 0  9994
2 50803  53.2172 109.2216 0001633  52.1968 162.9286 15.16291090  3655
1 50803U 22001A   22099.83334491 -.00720819  00000-0 -39913-1 0  9993
2 50803  53.2174 108.0863 0001865  37.8611 102.5006 15.15906680 15812
1 50803U 22001A   22099.91667824 -.00723376  00000-0 -40210-1 0  9994
2 50803  53.2172 107.7080 0001825  42.8223 192.5409 15.15780423  3658
1 50803U 22001A   22100.58334491 -.00726118  00000-0 -41563-1 0  9990
2 50803  53.2172 104.6893 0001718  45.0193 228.9768 15.14762311  3644
1 50803U 22001A   22100.83334491 -.00720365  00000-0 -41663-1 0  9997
2 50803  53.2173 103.5567 0001811  43.3438 154.5102 15.14376664 15964
1 50803U 22001A   22100.91667824 -.00721108  00000-0 -41861-1 0  9991
2 50803  53.2173 103.1794 0001693  45.2094 247.1871 15.14249152  3644
1 50803U 22001A   22101.58334491 -.00726271  00000-0 -43413-1 0  9997
2 50803  53.2173 100.1678 0001592  46.2869 281.0652 15.13232448  3644
1 50803U 22001A   22101.83334491 -.00719521  00000-0 -43449-1 0  9994
2 50803  53.2174  99.0378 0001764  43.6268 206.2046 15.12846277 16115
1 50803U 22001A   22101.91667824 -.00719644  00000-0 -43614-1 0  9992
2 50803  53.2173  98.6615 0001682  41.7785 302.1358 15.12718433  3621
1 50803U 22001A   22102.58334491 -.00725189  00000-0 -45245-1 0  9990
2 50803  53.2173  95.6569 0001764  37.1313 338.0620 15.11701861  3641
1 50803U 22001A   22102.83334491 -.00718619  00000-0 -45291-1 0  9999
2 50803  53.2174  94.5296 0001762  40.9895 255.3043 15.11315771 16276
1 50803U 22001A   22102.91667824 -.00719595  00000-0 -45518-1 0  9993
2 50803  53.2173  94.1543 0001773  37.8202 352.0964 15.11188614  3621
1 50803U 22001A   22103.58336806 -.00723319  00000-0 -47086-1 0  9991
2 50803  53.2173  91.1565 0001528  48.8067   8.8388 15.10170873  3668
1 50803U 22001A   22103.83335648 -.00718421  00000-0 -47245-1 0  9997
2 50803  53.2173  90.0319 0001576  45.4544 291.8495 15.09785564 16427
1 50803U 22001A   22103.91667824 -.00722853  00000-0 -47722-1 0  9994
2 50803  53.2173  89.6574 0001691  43.4068  26.9969 15.09660333  3640
1 50803U 22001A   22104.25001157 -.00143682  00000-0 -91687-2 0  9990
2 50803  53.2169  88.1605 0001668  46.2672  36.4688 15.08933963 16481
